{"type": "FeatureCollection", "features": [ {"type": "Feature", "properties": {"norad_id": 41774, "name": "SKYSAT-C3", "group": "resource", "lat": 7.056459372585971, "lon": -168.52928850567108, "alt_km": 436.7160936391674, "timestamp": "2025-12-02T08:59:32.377028+00:00", "meta": {"OBJECT_NAME": "SKYSAT-C3", "OBJECT_ID": "2016-058E", "EPOCH": "2025-12-02T02:01:26.633856", "MEAN_MOTION": 15.43828804, "ECCENTRICITY": 0.0001394, "INCLINATION": 96.9318, "RA_OF_ASC_NODE": 10.3311, "ARG_OF_PERICENTER": 98.2621, "MEAN_ANOMALY": 261.8787, "EPHEMERIS_TYPE": 0, "CLASSIFICATION_TYPE": "U", "NORAD_CAT_ID": 41774, "ELEMENT_SET_NO": 999, "REV_AT_EPOCH": 51561, "BSTAR": 0.00046964, "MEAN_MOTION_DOT": 0.0002123, "MEAN_MOTION_DDOT": 0}, "tle": {"line1": "1 41774U 16058E   25336.08433604  .00021230  00000+0  46964-3 0  9999", "line2": "2 41774  96.9318  10.3311 0001394  98.2621 261.8787 15.43828804515615"}}, "geometry": {"type": "Point", "coordinates": [-168.52928850567108, 7.056459372585971]}}, {"type": "Feature", "properties": {"norad_id": 41785, "name": "ALSAT 1B", "group": "resource", "lat": -15.312674776547418, "lon": 166.46573035523855, "alt_km": 655.8844038711368, "timestamp": "2025-12-02T08:59:32.377038+00:00", "meta": {"OBJECT_NAME": "ALSAT 1B", "OBJECT_ID": "2016-059C", "EPOCH": "2025-12-02T04:50:44.966976", "MEAN_MOTION": 14.72057177, "ECCENTRICITY": 0.0010315, "INCLINATION": 97.782, "RA_OF_ASC_NODE": 348.4463, "ARG_OF_PERICENTER": 133.7449, "MEAN_ANOMALY": 226.4615, "EPHEMERIS_TYPE": 0, "CLASSIFICATION_TYPE": "U", "NORAD_CAT_ID": 41785, "ELEMENT_SET_NO": 999, "REV_AT_EPOCH": 49159, "BSTAR": 9.8705e-05, "MEAN_MOTION_DOT": 5.74e-06, "MEAN_MOTION_DDOT": 0}, "tle": {"line1": "1 41785U 16059C   25336.20190934  .00000574  00000+0  98705-4 0  9991", "line2": "2 41785  97.7820 348.4463 0010315 133.7449 226.4615 14.72057177491598"}}, "geometry": {"type": "Point", "coordinates": [166.46573035523855, -15.312674776547418]}}, {"type": "Feature", "properties": {"norad_id": 41787, "name": "PATHFINDER 1", "group": "resource", "lat": 82.11201541937155, "lon": -117.99373068381061, "alt_km": 642.6461151039966, "timestamp": "2025-12-02T08:59:32.377048+00:00", "meta": {"OBJECT_NAME": "PATHFINDER 1", "OBJECT_ID": "2016-059E", "EPOCH": "2025-12-02T00:23:47.612256", "MEAN_MOTION": 14.67290496, "ECCENTRICITY": 0.0029917, "INCLINATION": 97.814, "RA_OF_ASC_NODE": 339.2879, "ARG_OF_PERICENTER": 113.7764, "MEAN_ANOMALY": 246.6584, "EPHEMERIS_TYPE": 0, "CLASSIFICATION_TYPE": "U", "NORAD_CAT_ID": 41787, "ELEMENT_SET_NO": 999, "REV_AT_EPOCH": 49079, "BSTAR": 0.00017795, "MEAN_MOTION_DOT": 9.64e-06, "MEAN_MOTION_DDOT": 0}, "tle": {"line1": "1 41787U 16059E   25336.01652329  .00000964  00000+0  17795-3 0  9995", "line2": "2 41787  97.8140 339.2879 0029917 113.7764 246.6584 14.67290496490798"}}, "geometry": {"type": "Point", "coordinates": [-117.99373068381061, 82.11201541937155]}}, {"type": "Feature", "properties": {"norad_id": 41790, "name": "SCATSAT 1", "group": "resource", "lat": 10.621119607110325, "lon": 31.375988424019052, "alt_km": 668.214796309996, "timestamp": "2025-12-02T08:59:32.377059+00:00", "meta": {"OBJECT_NAME": "SCATSAT 1", "OBJECT_ID": "2016-059H", "EPOCH": "2025-12-02T04:04:18.891840", "MEAN_MOTION": 14.78875526, "ECCENTRICITY": 0.0055739, "INCLINATION": 98.1482, "RA_OF_ASC_NODE": 32.708, "ARG_OF_PERICENTER": 161.5626, "MEAN_ANOMALY": 198.7622, "EPHEMERIS_TYPE": 0, "CLASSIFICATION_TYPE": "U", "NORAD_CAT_ID": 41790, "ELEMENT_SET_NO": 999, "REV_AT_EPOCH": 7246, "BSTAR": 0.00029278, "MEAN_MOTION_DOT": 2.157e-05, "MEAN_MOTION_DDOT": 0}, "tle": {"line1": "1 41790U 16059H   25336.16966310  .00002157  00000+0  29278-3 0  9998", "line2": "2 41790  98.1482  32.7080 0055739 161.5626 198.7622 14.78875526 72468"}}, "geometry": {"type": "Point", "coordinates": [31.375988424019052, 10.621119607110325]}}, {"type": "Feature", "properties": {"norad_id": 41875, "name": "GOKTURK 1A", "group": "resource", "lat": -22.689122469028803, "lon": -127.69013451423999, "alt_km": 689.9092570580842, "timestamp": "2025-12-02T08:59:32.377069+00:00", "meta": {"OBJECT_NAME": "GOKTURK 1A", "OBJECT_ID": "2016-073A", "EPOCH": "2025-12-02T04:10:18.466176", "MEAN_MOTION": 14.62758639, "ECCENTRICITY": 0.0001245, "INCLINATION": 98.1431, "RA_OF_ASC_NODE": 228.6798, "ARG_OF_PERICENTER": 82.0173, "MEAN_ANOMALY": 278.117, "EPHEMERIS_TYPE": 0, "CLASSIFICATION_TYPE": "U", "NORAD_CAT_ID": 41875, "ELEMENT_SET_NO": 999, "REV_AT_EPOCH": 48002, "BSTAR": 0.00013956, "MEAN_MOTION_DOT": 6.65e-06, "MEAN_MOTION_DDOT": 0}, "tle": {"line1": "1 41875U 16073A   25336.17382484  .00000665  00000+0  13956-3 0  9991", "line2": "2 41875  98.1431 228.6798 0001245  82.0173 278.1170 14.62758639480029"}}, "geometry": {"type": "Point", "coordinates": [-127.69013451423999, -22.689122469028803]}}, {"type": "Feature", "properties": {"norad_id": 41877, "name": "RESOURCESAT-2A", "group": "resource", "lat": 59.05449767980148, "lon": -118.77730445013329, "alt_km": 815.0720485668235, "timestamp": "2025-12-02T08:59:32.377080+00:00", "meta": {"OBJECT_NAME": "RESOURCESAT-2A", "OBJECT_ID": "2016-074A", "EPOCH": "2025-12-02T05:03:09.348768", "MEAN_MOTION": 14.21592055, "ECCENTRICITY": 0.0001187, "INCLINATION": 98.7769, "RA_OF_ASC_NODE": 46.1273, "ARG_OF_PERICENTER": 307.7726, "MEAN_ANOMALY": 52.3344, "EPHEMERIS_TYPE": 0, "CLASSIFICATION_TYPE": "U", "NORAD_CAT_ID": 41877, "ELEMENT_SET_NO": 999, "REV_AT_EPOCH": 46631, "BSTAR": 0.00011253, "MEAN_MOTION_DOT": 2.02e-06, "MEAN_MOTION_DDOT": 0}, "tle": {"line1": "1 41877U 16074A   25336.21052487  .00000202  00000+0  11253-3 0  9991", "line2": "2 41877  98.7769  46.1273 0001187 307.7726  52.3344 14.21592055466312"}}, "geometry": {"type": "Point", "coordinates": [-118.77730445013329, 59.05449767980148]}}, {"type": "Feature", "properties": {"norad_id": 41948, "name": "CARTOSAT-2D", "group": "resource", "lat": 82.53049074437074, "lon": -51.371829953844035, "alt_km": 501.719567935892, "timestamp": "2025-12-02T08:59:32.377091+00:00", "meta": {"OBJECT_NAME": "CARTOSAT-2D", "OBJECT_ID": "2017-008A", "EPOCH": "2025-12-02T03:51:28.870848", "MEAN_MOTION": 15.19322257, "ECCENTRICITY": 0.0004866, "INCLINATION": 97.4406, "RA_OF_ASC_NODE": 33.8184, "ARG_OF_PERICENTER": 203.0166, "MEAN_ANOMALY": 157.0851, "EPHEMERIS_TYPE": 0, "CLASSIFICATION_TYPE": "U", "NORAD_CAT_ID": 41948, "ELEMENT_SET_NO": 999, "REV_AT_EPOCH": 48766, "BSTAR": 1.7816e-06, "MEAN_MOTION_DOT": -3e-07, "MEAN_MOTION_DDOT": 0}, "tle": {"line1": "1 41948U 17008A   25336.16075082 -.00000030  00000+0  17816-5 0  9991", "line2": "2 41948  97.4406  33.8184 0004866 203.0166 157.0851 15.19322257487662"}}, "geometry": {"type": "Point", "coordinates": [-51.371829953844035, 82.53049074437074]}}, {"type": "Feature", "properties": {"norad_id": 42063, "name": "SENTINEL-2B", "group": "resource", "lat": 72.71696049360742, "lon": -102.03372203313494, "alt_km": 781.2272782848695, "timestamp": "2025-12-02T08:59:32.377102+00:00", "meta": {"OBJECT_NAME": "SENTINEL-2B", "OBJECT_ID": "2017-013A", "EPOCH": "2025-12-02T05:08:47.810400", "MEAN_MOTION": 14.30809036, "ECCENTRICITY": 0.0001115, "INCLINATION": 98.5728, "RA_OF_ASC_NODE": 48.8076, "ARG_OF_PERICENTER": 98.5589, "MEAN_ANOMALY": 261.572, "EPHEMERIS_TYPE": 0, "CLASSIFICATION_TYPE": "U", "NORAD_CAT_ID": 42063, "ELEMENT_SET_NO": 999, "REV_AT_EPOCH": 45647, "BSTAR": 8.8983e-05, "MEAN_MOTION_DOT": 1.9e-06, "MEAN_MOTION_DDOT": 0}, "tle": {"line1": "1 42063U 17013A   25336.21444225  .00000190  00000+0  88983-4 0  9999", "line2": "2 42063  98.5728  48.8076 0001115  98.5589 261.5720 14.30809036456474"}}, "geometry": {"type": "Point", "coordinates": [-102.03372203313494, 72.71696049360742]}}, {"type": "Feature", "properties": {"norad_id": 42767, "name": "CARTOSAT-2E", "group": "resource", "lat": 0.15511795753160995, "lon": 34.07600764466151, "alt_km": 510.7282310566234, "timestamp": "2025-12-02T08:59:32.377112+00:00", "meta": {"OBJECT_NAME": "CARTOSAT-2E", "OBJECT_ID": "2017-036C", "EPOCH": "2025-12-02T04:14:58.879968", "MEAN_MOTION": 15.19329699, "ECCENTRICITY": 0.0002722, "INCLINATION": 97.4579, "RA_OF_ASC_NODE": 33.9012, "ARG_OF_PERICENTER": 276.9631, "MEAN_ANOMALY": 83.1294, "EPHEMERIS_TYPE": 0, "CLASSIFICATION_TYPE": "U", "NORAD_CAT_ID": 42767, "ELEMENT_SET_NO": 999, "REV_AT_EPOCH": 46823, "BSTAR": 0.00033084, "MEAN_MOTION_DOT": 6.923e-05, "MEAN_MOTION_DDOT": 0}, "tle": {"line1": "1 42767U 17036C   25336.17707037  .00006923  00000+0  33084-3 0  9994", "line2": "2 42767  97.4579  33.9012 0002722 276.9631  83.1294 15.19329699468238"}}, "geometry": {"type": "Point", "coordinates": [34.07600764466151, 0.15511795753160995]}}, {"type": "Feature", "properties": {"norad_id": 42920, "name": "FORMOSAT-5", "group": "resource", "lat": 73.12090013161047, "lon": 22.346824197761357, "alt_km": 717.2985227163845, "timestamp": "2025-12-02T08:59:32.377123+00:00", "meta": {"OBJECT_NAME": "FORMOSAT-5", "OBJECT_ID": "2017-049A", "EPOCH": "2025-12-02T03:40:55.762752", "MEAN_MOTION": 14.50994576, "ECCENTRICITY": 0.0010383, "INCLINATION": 98.2464, "RA_OF_ASC_NODE": 50.682, "ARG_OF_PERICENTER": 330.779, "MEAN_ANOMALY": 29.2823, "EPHEMERIS_TYPE": 0, "CLASSIFICATION_TYPE": "U", "NORAD_CAT_ID": 42920, "ELEMENT_SET_NO": 999, "REV_AT_EPOCH": 43810, "BSTAR": 8.2601e-05, "MEAN_MOTION_DOT": 2.83e-06, "MEAN_MOTION_DDOT": 0}, "tle": {"line1": "1 42920U 17049A   25336.15342318  .00000283  00000+0  82601-4 0  9997", "line2": "2 42920  98.2464  50.6820 0010383 330.7790  29.2823 14.50994576438109"}}, "geometry": {"type": "Point", "coordinates": [22.346824197761357, 73.12090013161047]}}]}